{"type": "FeatureCollection", "features": [ {"type": "Feature", "properties": {"norad_id": 28649, "name": "IRS-P5 (CARTOSAT-1)", "group": "resource", "lat": 26.822428364138418, "lon": -155.39560768043364, "alt_km": 595.7658523053569, "timestamp": "2025-12-20T16:47:35.947853+00:00", "meta": {"OBJECT_NAME": "IRS-P5 (CARTOSAT-1)", "OBJECT_ID": "2005-017A", "EPOCH": "2025-12-19T23:59:49.912800", "MEAN_MOTION": 14.90427288, "ECCENTRICITY": 8.04e-05, "INCLINATION": 97.5486, "RA_OF_ASC_NODE": 20.0911, "ARG_OF_PERICENTER": 50.7358, "MEAN_ANOMALY": 309.3932, "EPHEMERIS_TYPE": 0, "CLASSIFICATION_TYPE": "U", "NORAD_CAT_ID": 28649, "ELEMENT_SET_NO": 999, "REV_AT_EPOCH": 11712, "BSTAR": 0.00010855912, "MEAN_MOTION_DOT": 1.006e-05, "MEAN_MOTION_DDOT": 0}, "tle": {"line1": "1 28649U 05017A   25353.99988325  .00001006  00000+0  10856-3 0  9992", "line2": "2 28649  97.5486  20.0911 0000804  50.7358 309.3932 14.90427288117129"}}, "geometry": {"type": "Point", "coordinates": [-155.39560768043364, 26.822428364138418]}}, {"type": "Feature", "properties": {"norad_id": 28893, "name": "SINAH 1", "group": "resource", "lat": 68.63765117948621, "lon": -34.91753505799024, "alt_km": 662.6905902725894, "timestamp": "2025-12-20T16:47:35.947864+00:00", "meta": {"OBJECT_NAME": "SINAH 1", "OBJECT_ID": "2005-043D", "EPOCH": "2025-12-20T11:22:24.616992", "MEAN_MOTION": 14.63970021, "ECCENTRICITY": 0.0015635, "INCLINATION": 98.2608, "RA_OF_ASC_NODE": 123.052, "ARG_OF_PERICENTER": 114.3452, "MEAN_ANOMALY": 245.9384, "EPHEMERIS_TYPE": 0, "CLASSIFICATION_TYPE": "U", "NORAD_CAT_ID": 28893, "ELEMENT_SET_NO": 999, "REV_AT_EPOCH": 7437, "BSTAR": 6.6136e-05, "MEAN_MOTION_DOT": 2.98e-06, "MEAN_MOTION_DDOT": 0}, "tle": {"line1": "1 28893U 05043D   25354.47389603  .00000298  00000+0  66136-4 0  9995", "line2": "2 28893  98.2608 123.0520 0015635 114.3452 245.9384 14.63970021 74377"}}, "geometry": {"type": "Point", "coordinates": [-34.91753505799024, 68.63765117948621]}}, {"type": "Feature", "properties": {"norad_id": 29079, "name": "EROS B", "group": "resource", "lat": -76.78170217718773, "lon": -101.65151512275978, "alt_km": 362.7872808012935, "timestamp": "2025-12-20T16:47:35.947875+00:00", "meta": {"OBJECT_NAME": "EROS B", "OBJECT_ID": "2006-014A", "EPOCH": "2025-12-20T12:38:08.298816", "MEAN_MOTION": 15.70642125, "ECCENTRICITY": 0.0003519, "INCLINATION": 97.3465, "RA_OF_ASC_NODE": 111.4853, "ARG_OF_PERICENTER": 310.9409, "MEAN_ANOMALY": 49.1549, "EPHEMERIS_TYPE": 0, "CLASSIFICATION_TYPE": "U", "NORAD_CAT_ID": 29079, "ELEMENT_SET_NO": 999, "REV_AT_EPOCH": 9202, "BSTAR": 0.0010632, "MEAN_MOTION_DOT": 0.00132774, "MEAN_MOTION_DDOT": 0}, "tle": {"line1": "1 29079U 06014A   25354.52648494  .00132774  00000+0  10632-2 0  9996", "line2": "2 29079  97.3465 111.4853 0003519 310.9409  49.1549 15.70642125 92028"}}, "geometry": {"type": "Point", "coordinates": [-101.65151512275978, -76.78170217718773]}}, {"type": "Feature", "properties": {"norad_id": 29228, "name": "RESURS-DK 1", "group": "resource", "lat": -11.832174288942877, "lon": 76.87546004802616, "alt_km": 533.7630910359503, "timestamp": "2025-12-20T16:47:35.947885+00:00", "meta": {"OBJECT_NAME": "RESURS-DK 1", "OBJECT_ID": "2006-021A", "EPOCH": "2025-12-20T10:29:55.559040", "MEAN_MOTION": 15.12200316, "ECCENTRICITY": 0.000687, "INCLINATION": 69.9339, "RA_OF_ASC_NODE": 81.9448, "ARG_OF_PERICENTER": 252.5475, "MEAN_ANOMALY": 107.494, "EPHEMERIS_TYPE": 0, "CLASSIFICATION_TYPE": "U", "NORAD_CAT_ID": 29228, "ELEMENT_SET_NO": 999, "REV_AT_EPOCH": 7554, "BSTAR": 0.00011187, "MEAN_MOTION_DOT": 1.829e-05, "MEAN_MOTION_DDOT": 0}, "tle": {"line1": "1 29228U 06021A   25354.43744860  .00001829  00000+0  11187-3 0  9997", "line2": "2 29228  69.9339  81.9448 0006870 252.5475 107.4940 15.12200316 75546"}}, "geometry": {"type": "Point", "coordinates": [76.87546004802616, -11.832174288942877]}}, {"type": "Feature", "properties": {"norad_id": 29268, "name": "ARIRANG-2 (KOMPSAT-2)", "group": "resource", "lat": 29.8362387855284, "lon": 178.2600020693254, "alt_km": 680.14050575277, "timestamp": "2025-12-20T16:47:35.947896+00:00", "meta": {"OBJECT_NAME": "ARIRANG-2 (KOMPSAT-2)", "OBJECT_ID": "2006-031A", "EPOCH": "2025-12-20T12:07:20.403264", "MEAN_MOTION": 14.64499584, "ECCENTRICITY": 0.001318, "INCLINATION": 97.8254, "RA_OF_ASC_NODE": 182.599, "ARG_OF_PERICENTER": 282.3099, "MEAN_ANOMALY": 162.3106, "EPHEMERIS_TYPE": 0, "CLASSIFICATION_TYPE": "U", "NORAD_CAT_ID": 29268, "ELEMENT_SET_NO": 999, "REV_AT_EPOCH": 3532, "BSTAR": 2.3279e-05, "MEAN_MOTION_DOT": 7.8e-07, "MEAN_MOTION_DDOT": 0}, "tle": {"line1": "1 29268U 06031A   25354.50509726  .00000078  00000+0  23279-4 0  9991", "line2": "2 29268  97.8254 182.5990 0013180 282.3099 162.3106 14.64499584 35320"}}, "geometry": {"type": "Point", "coordinates": [178.2600020693254, 29.8362387855284]}}, {"type": "Feature", "properties": {"norad_id": 29709, "name": "LAPAN-TUBSAT", "group": "resource", "lat": -30.756636646805514, "lon": 160.1427970698234, "alt_km": 626.2977243428504, "timestamp": "2025-12-20T16:47:35.947906+00:00", "meta": {"OBJECT_NAME": "LAPAN-TUBSAT", "OBJECT_ID": "2007-001A", "EPOCH": "2025-12-20T12:36:52.041312", "MEAN_MOTION": 14.8568117, "ECCENTRICITY": 0.001339, "INCLINATION": 98.125, "RA_OF_ASC_NODE": 344.8421, "ARG_OF_PERICENTER": 51.0535, "MEAN_ANOMALY": 309.187, "EPHEMERIS_TYPE": 0, "CLASSIFICATION_TYPE": "U", "NORAD_CAT_ID": 29709, "ELEMENT_SET_NO": 999, "REV_AT_EPOCH": 2462, "BSTAR": 8.0365e-05, "MEAN_MOTION_DOT": 6.4e-06, "MEAN_MOTION_DDOT": 0}, "tle": {"line1": "1 29709U 07001A   25354.52560233  .00000640  00000+0  80365-4 0  9995", "line2": "2 29709  98.1250 344.8421 0013390  51.0535 309.1870 14.85681170 24628"}}, "geometry": {"type": "Point", "coordinates": [160.1427970698234, -30.756636646805514]}}, {"type": "Feature", "properties": {"norad_id": 31113, "name": "HAIYANG-1B", "group": "resource", "lat": -29.192141615501104, "lon": -16.65425642313269, "alt_km": 787.2931232579385, "timestamp": "2025-12-20T16:47:35.947932+00:00", "meta": {"OBJECT_NAME": "HAIYANG-1B", "OBJECT_ID": "2007-010A", "EPOCH": "2025-12-20T11:53:46.555872", "MEAN_MOTION": 14.3096749, "ECCENTRICITY": 0.0013883, "INCLINATION": 98.3321, "RA_OF_ASC_NODE": 338.4536, "ARG_OF_PERICENTER": 15.9883, "MEAN_ANOMALY": 344.1736, "EPHEMERIS_TYPE": 0, "CLASSIFICATION_TYPE": "U", "NORAD_CAT_ID": 31113, "ELEMENT_SET_NO": 999, "REV_AT_EPOCH": 97507, "BSTAR": 4.2865e-05, "MEAN_MOTION_DOT": 7.1e-07, "MEAN_MOTION_DDOT": 0}, "tle": {"line1": "1 31113U 07010A   25354.49567773  .00000071  00000+0  42865-4 0  9990", "line2": "2 31113  98.3321 338.4536 0013883  15.9883 344.1736 14.30967490975075"}}, "geometry": {"type": "Point", "coordinates": [-16.65425642313269, -29.192141615501104]}}, {"type": "Feature", "properties": {"norad_id": 31598, "name": "COSMO-SKYMED 1", "group": "resource", "lat": 79.84502934290029, "lon": 50.82992808706617, "alt_km": 571.3709972651714, "timestamp": "2025-12-20T16:47:35.947945+00:00", "meta": {"OBJECT_NAME": "COSMO-SKYMED 1", "OBJECT_ID": "2007-023A", "EPOCH": "2025-12-20T11:32:51.587232", "MEAN_MOTION": 14.95821839, "ECCENTRICITY": 0.0001575, "INCLINATION": 97.8837, "RA_OF_ASC_NODE": 179.9312, "ARG_OF_PERICENTER": 83.529, "MEAN_ANOMALY": 276.611, "EPHEMERIS_TYPE": 0, "CLASSIFICATION_TYPE": "U", "NORAD_CAT_ID": 31598, "ELEMENT_SET_NO": 999, "REV_AT_EPOCH": 306, "BSTAR": 0.00025917, "MEAN_MOTION_DOT": 2.834e-05, "MEAN_MOTION_DDOT": 0}, "tle": {"line1": "1 31598U 07023A   25354.48115263  .00002834  00000+0  25917-3 0  9990", "line2": "2 31598  97.8837 179.9312 0001575  83.5290 276.6110 14.95821839  3069"}}, "geometry": {"type": "Point", "coordinates": [50.82992808706617, 79.84502934290029]}}, {"type": "Feature", "properties": {"norad_id": 31698, "name": "TERRASAR-X", "group": "resource", "lat": 59.344606003139134, "lon": -12.782328606716124, "alt_km": 501.5675649381865, "timestamp": "2025-12-20T16:47:35.947956+00:00", "meta": {"OBJECT_NAME": "TERRASAR-X", "OBJECT_ID": "2007-026A", "EPOCH": "2025-12-19T12:04:27.729408", "MEAN_MOTION": 15.19152518, "ECCENTRICITY": 0.0001854, "INCLINATION": 97.4454, "RA_OF_ASC_NODE": 358.785, "ARG_OF_PERICENTER": 93.3795, "MEAN_ANOMALY": 266.7652, "EPHEMERIS_TYPE": 0, "CLASSIFICATION_TYPE": "U", "NORAD_CAT_ID": 31698, "ELEMENT_SET_NO": 999, "REV_AT_EPOCH": 2594, "BSTAR": 3.366e-05, "MEAN_MOTION_DOT": 6.4e-06, "MEAN_MOTION_DDOT": 0}, "tle": {"line1": "1 31698U 07026A   25353.50309872  .00000640  00000+0  33660-4 0  9995", "line2": "2 31698  97.4454 358.7850 0001854  93.3795 266.7652 15.19152518 25944"}}, "geometry": {"type": "Point", "coordinates": [-12.782328606716124, 59.344606003139134]}}, {"type": "Feature", "properties": {"norad_id": 32060, "name": "WORLDVIEW-1 (WV-1)", "group": "resource", "lat": -38.39476773745493, "lon": -73.8288882150223, "alt_km": 502.8523764663587, "timestamp": "2025-12-20T16:47:35.947966+00:00", "meta": {"OBJECT_NAME": "WORLDVIEW-1 (WV-1)", "OBJECT_ID": "2007-041A", "EPOCH": "2025-12-20T07:57:24.808032", "MEAN_MOTION": 15.23881703, "ECCENTRICITY": 0.0003586, "INCLINATION": 97.3821, "RA_OF_ASC_NODE": 111.7057, "ARG_OF_PERICENTER": 13.6559, "MEAN_ANOMALY": 346.4774, "EPHEMERIS_TYPE": 0, "CLASSIFICATION_TYPE": "U", "NORAD_CAT_ID": 32060, "ELEMENT_SET_NO": 999, "REV_AT_EPOCH": 1563, "BSTAR": 0.00024304, "MEAN_MOTION_DOT": 5.797e-05, "MEAN_MOTION_DDOT": 0}, "tle": {"line1": "1 32060U 07041A   25354.33153713  .00005797  00000+0  24304-3 0  9991", "line2": "2 32060  97.3821 111.7057 0003586  13.6559 346.4774 15.23881703 15634"}}, "geometry": {"type": "Point", "coordinates": [-73.8288882150223, -38.39476773745493]}}]}